[{"OBJECT_NAME":"STARLINK-6308","OBJECT_ID":"2023-065AH","EPOCH":"2026-03-09T22:00:01.999584","MEAN_MOTION":15.14468272,"ECCENTRICITY":0.00015369,"INCLINATION":42.9995,"RA_OF_ASC_NODE":195.9313,"ARG_OF_PERICENTER":265.5334,"MEAN_ANOMALY":352.8543,"EPHEMERIS_TYPE":0,"CLASSIFICATION_TYPE":"U","NORAD_CAT_ID":56534,"ELEMENT_SET_NO":999,"REV_AT_EPOCH":563,"BSTAR":0.0040146365,"MEAN_MOTION_DOT":0.0007575,"MEAN_MOTION_DDOT":0},{"OBJECT_NAME":"TWILIGHT-1 OBJECT AC","OBJECT_ID":"2026-004AC","EPOCH":"2026-03-09T12:46:33.802752","MEAN_MOTION":15.17544269,"ECCENTRICITY":0.00027973,"INCLINATION":97.4598,"RA_OF_ASC_NODE":69.0026,"ARG_OF_PERICENTER":3.0882,"MEAN_ANOMALY":357.0369,"EPHEMERIS_TYPE":0,"CLASSIFICATION_TYPE":"U","NORAD_CAT_ID":67389,"ELEMENT_SET_NO":999,"REV_AT_EPOCH":863,"BSTAR":0.00031419474,"MEAN_MOTION_DOT":6.24e-5,"MEAN_MOTION_DDOT":0}]
